     2.10           G: GLONASS NAV DATA                     RINEX VERSION / TYPE
teqc  2015Jun23                         20211003 01:25:50UTCPGM / RUN BY / DATE
Linux 2.4.21-27.ELsmp|Opteron|gcc -static|Linux x86_64|=+   COMMENT
  2021     9     9    0.000000000000D+00                    CORR TO SYSTEM TIME
                                                            END OF HEADER
 8 21  9 10 10 45  0.0-6.083678454161D-05 0.000000000000D+00 3.906000000000D+04
   -3.563437988281D+03-2.834085464478D+00 9.313225746155D-10 0.000000000000D+00
    1.231541650391D+04 1.023636817932D+00-0.000000000000D+00 6.000000000000D+00
    2.209723144531D+04-1.032002449036D+00-2.793967723846D-09 0.000000000000D+00
 8 21  9 10 11 15  0.0-6.083585321903D-05 0.000000000000D+00 3.960000000000D+04
   -8.243783691406D+03-2.329700469971D+00 9.313225746155D-10 0.000000000000D+00
    1.440148291016D+04 1.260312080383D+00-9.313225746155D-10 6.000000000000D+00
    1.941303466797D+04-1.931314468384D+00-2.793967723846D-09 0.000000000000D+00
10 21  9 10 11 15  0.0-7.484108209610D-05-0.000000000000D+00 3.960000000000D+04
   -9.218704589844D+03 2.043285369873D-01 9.313225746155D-10 0.000000000000D+00
    1.578852099609D+04-2.426701545715D+00-9.313225746155D-10-7.000000000000D+00
    1.775458544922D+04 2.270205497742D+00-2.793967723846D-09 0.000000000000D+00
 7 21  9 10 11 15  0.0-4.126783460379D-05-0.000000000000D+00 3.960000000000D+04
   -2.076309863281D+04-6.612510681152D-01 0.000000000000D+00 0.000000000000D+00
    1.352146191406D+04 5.036382675171D-01-2.793967723846D-09 5.000000000000D+00
    5.990063476562D+03-3.451551437378D+00-0.000000000000D+00 0.000000000000D+00
12 21  9 10 11 15  0.0 2.608112990856D-04 2.728484105319D-12 3.960000000000D+04
    6.342954589844D+03-2.407073974609D-03 3.725290298462D-09 0.000000000000D+00
    1.923107226562D+04 2.128219604492D+00 2.793967723846D-09-1.000000000000D+00
   -1.546747265625D+04 2.640739440918D+00 9.313225746155D-10 0.000000000000D+00
22 21  9 10 11 15  0.0-1.324918121099D-04-9.094947017729D-13 3.960000000000D+04
    4.196048339844D+03-2.289863586426D+00 2.793967723846D-09 0.000000000000D+00
    1.413333544922D+04-1.707028388977D+00 1.862645149231D-09-3.000000000000D+00
   -2.085778857422D+04-1.610879898071D+00 1.862645149231D-09 0.000000000000D+00
23 21  9 10 11 15  0.0-1.307483762503D-05-0.000000000000D+00 3.960000000000D+04
    1.984846728516D+04-2.841138839722D-01 3.725290298462D-09 0.000000000000D+00
    1.557330957031D+04-4.920606613159D-01 3.725290298462D-09 3.000000000000D+00
   -3.743449218750D+03-3.564105987549D+00-0.000000000000D+00 0.000000000000D+00
 8 21  9 10 11 45  0.0-6.083585321903D-05 0.000000000000D+00 4.140000000000D+04
   -1.184620898438D+04-1.652553558350D+00 0.000000000000D+00 0.000000000000D+00
    1.671207763672D+04 1.264204025269D+00-1.862645149231D-09 6.000000000000D+00
    1.523339208984D+04-2.682839393616D+00-1.862645149231D-09 0.000000000000D+00
10 21  9 10 11 45  0.0-7.484201341867D-05-0.000000000000D+00 4.140000000000D+04
   -9.187635253906D+03-1.901721954346D-01-0.000000000000D+00 0.000000000000D+00
    1.096782617188D+04-2.885032653809D+00-1.862645149231D-09-7.000000000000D+00
    2.110009912109D+04 1.422998428345D+00-2.793967723846D-09 0.000000000000D+00
 7 21  9 10 11 45  0.0-4.126783460379D-05-0.000000000000D+00 4.140000000000D+04
   -2.122220947266D+04 1.362571716309D-01-0.000000000000D+00 0.000000000000D+00
    1.410121435547D+04 1.021499633789D-01-2.793967723846D-09 5.000000000000D+00
   -3.743896484375D+02-3.574043273926D+00 0.000000000000D+00 0.000000000000D+00
12 21  9 10 11 45  0.0 2.608168870211D-04 2.728484105319D-12 4.140000000000D+04
    6.592151367188D+03 2.452783584595D-01 4.656612873077D-09 0.000000000000D+00
    2.241859033203D+04 1.384697914124D+00 9.313225746155D-10-1.000000000000D+00
   -1.017601269531D+04 3.200320243835D+00 0.000000000000D+00 0.000000000000D+00
22 21  9 10 11 45  0.0-1.324946060777D-04-9.094947017729D-13 4.140000000000D+04
   -3.966679687500D+02-2.776679992676D+00 1.862645149231D-09 0.000000000000D+00
    1.124837060547D+04-1.461087226868D+00 0.000000000000D+00-3.000000000000D+00
   -2.291673095703D+04-6.618442535400D-01 2.793967723846D-09 0.000000000000D+00
23 21  9 10 11 45  0.0-1.307576894760D-05-0.000000000000D+00 4.140000000000D+04
    1.859764111328D+04-1.112782478333D+00 4.656612873077D-09 0.000000000000D+00
    1.435789990234D+04-8.151445388794D-01 3.725290298462D-09 3.000000000000D+00
   -9.931146484375D+03-3.266473770142D+00 0.000000000000D+00 0.000000000000D+00
 1 21  9 10 11 45  0.0 8.510705083609D-05 0.000000000000D+00 4.254000000000D+04
    2.780568847656D+03-2.516341209412D+00 9.313225746155D-10 0.000000000000D+00
    1.139163476562D+04 1.813086509705D+00-0.000000000000D+00 1.000000000000D+00
    2.265006542969D+04-6.016912460327D-01-2.793967723846D-09 0.000000000000D+00
 8 21  9 10 12 15  0.0-6.083585321903D-05-0.000000000000D+00 4.320000000000D+04
   -1.415284179688D+04-9.087486267090D-01-0.000000000000D+00 0.000000000000D+00
    1.879266894531D+04 1.003047943115D+00-2.793967723846D-09 6.000000000000D+00
    9.878738281250D+03-3.228343963623D+00-9.313225746155D-10 0.000000000000D+00
12 21  9 10 12 15  0.0 2.608215436339D-04 2.728484105319D-12 4.320000000000D+04
    7.089048828125D+03 2.662096023560D-01 4.656612873077D-09 0.000000000000D+00
    2.414422070312D+04 5.221567153931D-01 0.000000000000D+00-1.000000000000D+00
   -4.095725585938D+03 3.511548042297D+00-0.000000000000D+00 0.000000000000D+00
 1 21  9 10 12 15  0.0 8.510798215866D-05 0.000000000000D+00 4.320000000000D+04
   -1.343483886719D+03-2.035693168640D+00 9.313225746155D-10 0.000000000000D+00
    1.483643164062D+04 1.974023818970D+00-9.313225746155D-10 1.000000000000D+00
    2.070534619141D+04-1.545046806335D+00-2.793967723846D-09 0.000000000000D+00
 7 21  9 10 12 15  0.0-4.126783460379D-05-0.000000000000D+00 4.320000000000D+04
   -2.035692724609D+04 7.940464019775D-01-9.313225746155D-10 0.000000000000D+00
    1.376909521484D+04-4.982461929321D-01-2.793967723846D-09 5.000000000000D+00
   -6.709726074219D+03-3.419325828552D+00 9.313225746155D-10 0.000000000000D+00
22 21  9 10 12 15  0.0-1.324983313680D-04-1.818989403546D-12 4.323000000000D+04
   -5.645196289062D+03-3.006776809692D+00 0.000000000000D+00 0.000000000000D+00
    8.983360839844D+03-1.032900810242D+00-0.000000000000D+00-3.000000000000D+00
   -2.320895849609D+04 3.394927978516D-01 2.793967723846D-09 0.000000000000D+00
 8 21  9 10 12 45  0.0-6.083585321903D-05-0.000000000000D+00 4.500000000000D+04
   -1.514571093750D+04-2.112255096436D-01-9.313225746155D-10 0.000000000000D+00
    2.017078369141D+04 4.896049499512D-01-2.793967723846D-09 6.000000000000D+00
    3.760994628906D+03-3.525088310242D+00-0.000000000000D+00 0.000000000000D+00
 1 21  9 10 12 45  0.0 8.510984480381D-05 0.000000000000D+00 4.500000000000D+04
   -4.468943359375D+03-1.423992156982D+00 0.000000000000D+00 0.000000000000D+00
    1.833900097656D+04 1.871207237244D+00-1.862645149231D-09 1.000000000000D+00
    1.715984716797D+04-2.368799209595D+00-1.862645149231D-09 0.000000000000D+00
 7 21  9 10 12 45  0.0-4.126876592636D-05-0.000000000000D+00 4.500000000000D+04
   -1.849732373047D+04 1.230356216431D+00-1.862645149231D-09 0.000000000000D+00
    1.223837548828D+04-1.213094711304D+00-1.862645149231D-09 5.000000000000D+00
   -1.252419433594D+04-2.999035835266D+00 1.862645149231D-09 0.000000000000D+00
12 21  9 10 12 45  0.0 2.608271315694D-04 2.728484105319D-12 4.500000000000D+04
    7.403072753906D+03 4.294967651367D-02 3.725290298462D-09 0.000000000000D+00
    2.429592089844D+04-3.444862365723D-01-9.313225746155D-10-1.000000000000D+00
    2.301855957031D+03 3.550651550293D+00-9.313225746155D-10 0.000000000000D+00
13 21  9 10 12 45  0.0-6.041210144758D-05-0.000000000000D+00 4.635000000000D+04
    1.324222460938D+04 7.737741470337D-01 4.656612873077D-09 0.000000000000D+00
    1.665985156250D+04 1.766959190369D+00 9.313225746155D-10-2.000000000000D+00
   -1.407278173828D+04 2.820981025696D+00 9.313225746155D-10 0.000000000000D+00
 8 21  9 10 13 15  0.0-6.083585321903D-05-0.000000000000D+00 4.680000000000D+04
   -1.500238671875D+04 3.387031555176D-01-1.862645149231D-09 0.000000000000D+00
    2.043709130859D+04-2.195634841919D-01-1.862645149231D-09 6.000000000000D+00
   -2.647642089844D+03-3.549315452576D+00 0.000000000000D+00 0.000000000000D+00
 1 21  9 10 13 15  0.0 8.511077612638D-05 0.000000000000D+00 4.680000000000D+04
   -6.456403320312D+03-7.898397445679D-01-0.000000000000D+00 0.000000000000D+00
    2.140519677734D+04 1.490634918213D+00-1.862645149231D-09 1.000000000000D+00
    1.228788623047D+04-3.009335517883D+00-9.313225746155D-10 0.000000000000D+00
 7 21  9 10 13 15  0.0-4.126876592636D-05-0.000000000000D+00 4.680000000000D+04
   -1.608721142578D+04 1.402269363403D+00-1.862645149231D-09 0.000000000000D+00
    9.397942382812D+03-1.934435844421D+00-9.313225746155D-10 5.000000000000D+00
   -1.736607470703D+04-2.345731735229D+00 1.862645149231D-09 0.000000000000D+00
12 21  9 10 13 15  0.0 2.608327195048D-04 3.637978807092D-12 4.680000000000D+04
    7.112849121094D+03-3.969640731812D-01 2.793967723846D-09 0.000000000000D+00
    2.297017822266D+04-1.101615905762D+00-9.313225746155D-10-1.000000000000D+00
    8.521403320312D+03 3.315113067627D+00-1.862645149231D-09 0.000000000000D+00
13 21  9 10 13 15  0.0-6.041303277016D-05-0.000000000000D+00 4.680000000000D+04
    1.457590673828D+04 6.654481887817D-01 4.656612873077D-09 0.000000000000D+00
    1.912827587891D+04 9.665899276733D-01-0.000000000000D+00-2.000000000000D+00
   -8.516842773438D+03 3.312238693237D+00-0.000000000000D+00 0.000000000000D+00
 8 21  9 10 13 45  0.0-6.083678454161D-05-0.000000000000D+00 4.860000000000D+04
   -1.405960351562D+04 6.679601669312D-01-1.862645149231D-09 0.000000000000D+00
    1.931757421875D+04-1.032664299011D+00-1.862645149231D-09 6.000000000000D+00
   -8.850991699219D+03-3.298353195190D+00 9.313225746155D-10 0.000000000000D+00
